{"type": "FeatureCollection", "features": [{"type": "Feature", "properties": {"norad_id": 2807, "name": "OPS 7218 (TRANSIT 16)", "group": "nnss", "lat": -63.2904728323023, "lon": -6.807714634240824, "alt_km": 1092.646208749643, "timestamp": "2025-12-17T23:38:07.122434+00:00", "meta": {"OBJECT_NAME": "OPS 7218 (TRANSIT 16)", "OBJECT_ID": "1967-048A", "EPOCH": "2025-12-17T13:52:55.920864", "MEAN_MOTION": 13.50723226, "ECCENTRICITY": 0.0022105, "INCLINATION": 89.6731, "RA_OF_ASC_NODE": 353.8558, "ARG_OF_PERICENTER": 101.1677, "MEAN_ANOMALY": 20.7822, "EPHEMERIS_TYPE": 0, "CLASSIFICATION_TYPE": "U", "NORAD_CAT_ID": 2807, "ELEMENT_SET_NO": 999, "REV_AT_EPOCH": 88341, "BSTAR": 0.00016543723, "MEAN_MOTION_DOT": 1.17e-06, "MEAN_MOTION_DDOT": 0}, "tle": {"line1": "1 02807U 67048A   25351.57842501  .00000117  00000+0  16544-3 0  9991", "line2": "2 02807  89.6731 353.8558 0022105 101.1677  20.7822 13.50723226883419"}}, "geometry": {"type": "Point", "coordinates": [-6.807714634240824, -63.2904728323023]}}, {"type": "Feature", "properties": {"norad_id": 2965, "name": "OPS 4947 (TRANSIT 17)", "group": "nnss", "lat": 52.63987390089361, "lon": 25.019823222224225, "alt_km": 1088.2979445646533, "timestamp": "2025-12-17T23:38:07.122455+00:00", "meta": {"OBJECT_NAME": "OPS 4947 (TRANSIT 17)", "OBJECT_ID": "1967-092A", "EPOCH": "2025-12-17T15:03:47.415168", "MEAN_MOTION": 13.53454756, "ECCENTRICITY": 0.00465017, "INCLINATION": 89.2492, "RA_OF_ASC_NODE": 24.0629, "ARG_OF_PERICENTER": 219.9085, "MEAN_ANOMALY": 253.6669, "EPHEMERIS_TYPE": 0, "CLASSIFICATION_TYPE": "U", "NORAD_CAT_ID": 2965, "ELEMENT_SET_NO": 999, "REV_AT_EPOCH": 87163, "BSTAR": 0.00020654149, "MEAN_MOTION_DOT": 1.51e-06, "MEAN_MOTION_DDOT": 0}, "tle": {"line1": "1 02965U 67092A   25351.62763212  .00000151  00000+0  20654-3 0  9997", "line2": "2 02965  89.2492  24.0629 0046501 219.9085 253.6669 13.53454756871636"}}, "geometry": {"type": "Point", "coordinates": [25.019823222224225, 52.63987390089361]}}, {"type": "Feature", "properties": {"norad_id": 3133, "name": "OPS 7034 (TRANSIT 18)", "group": "nnss", "lat": 13.289241340019394, "lon": 93.66042667385496, "alt_km": 1013.5594804642406, "timestamp": "2025-12-17T23:38:07.122468+00:00", "meta": {"OBJECT_NAME": "OPS 7034 (TRANSIT 18)", "OBJECT_ID": "1968-012A", "EPOCH": "2025-12-17T13:00:32.508288", "MEAN_MOTION": 13.51566773, "ECCENTRICITY": 0.00743168, "INCLINATION": 90.0282, "RA_OF_ASC_NODE": 273.6525, "ARG_OF_PERICENTER": 155.2679, "MEAN_ANOMALY": 18.1119, "EPHEMERIS_TYPE": 0, "CLASSIFICATION_TYPE": "U", "NORAD_CAT_ID": 3133, "ELEMENT_SET_NO": 999, "REV_AT_EPOCH": 56983, "BSTAR": 0.00013716006, "MEAN_MOTION_DOT": 1.01e-06, "MEAN_MOTION_DDOT": 0}, "tle": {"line1": "1 03133U 68012A   25351.54204292  .00000101  00000+0  13716-3 0  9993", "line2": "2 03133  90.0282 273.6525 0074316 155.2679  18.1119 13.51566773569835"}}, "geometry": {"type": "Point", "coordinates": [93.66042667385496, 13.289241340019394]}}, {"type": "Feature", "properties": {"norad_id": 4507, "name": "NNSS 19 (TRANSIT 19)", "group": "nnss", "lat": 47.88496818061764, "lon": 54.54322562927071, "alt_km": 1167.6653364274443, "timestamp": "2025-12-17T23:38:07.122480+00:00", "meta": {"OBJECT_NAME": "NNSS 19 (TRANSIT 19)", "OBJECT_ID": "1970-067A", "EPOCH": "2025-12-17T15:51:38.500992", "MEAN_MOTION": 13.51316069, "ECCENTRICITY": 0.01703065, "INCLINATION": 90.0052, "RA_OF_ASC_NODE": 234.5373, "ARG_OF_PERICENTER": 278.9868, "MEAN_ANOMALY": 79.2043, "EPHEMERIS_TYPE": 0, "CLASSIFICATION_TYPE": "U", "NORAD_CAT_ID": 4507, "ELEMENT_SET_NO": 999, "REV_AT_EPOCH": 72288, "BSTAR": 0.00012275119, "MEAN_MOTION_DOT": 9.5e-07, "MEAN_MOTION_DDOT": 0}, "tle": {"line1": "1 04507U 70067A   25351.66086228  .00000095  00000+0  12275-3 0  9993", "line2": "2 04507  90.0052 234.5373 0170306 278.9868  79.2043 13.51316069722883"}}, "geometry": {"type": "Point", "coordinates": [54.54322562927071, 47.88496818061764]}}, {"type": "Feature", "properties": {"norad_id": 6909, "name": "NNSS 20 (TRANSIT 20)", "group": "nnss", "lat": -45.80023433125927, "lon": 75.12349252555062, "alt_km": 1111.4228600116094, "timestamp": "2025-12-17T23:38:07.122491+00:00", "meta": {"OBJECT_NAME": "NNSS 20 (TRANSIT 20)", "OBJECT_ID": "1973-081A", "EPOCH": "2025-12-17T15:32:38.943744", "MEAN_MOTION": 13.71436654, "ECCENTRICITY": 0.01565271, "INCLINATION": 89.8562, "RA_OF_ASC_NODE": 254.9806, "ARG_OF_PERICENTER": 63.7867, "MEAN_ANOMALY": 297.9293, "EPHEMERIS_TYPE": 0, "CLASSIFICATION_TYPE": "U", "NORAD_CAT_ID": 6909, "ELEMENT_SET_NO": 999, "REV_AT_EPOCH": 80428, "BSTAR": 0.00023255547, "MEAN_MOTION_DOT": 2.4e-06, "MEAN_MOTION_DDOT": 0}, "tle": {"line1": "1 06909U 73081A   25351.64767296  .00000240  00000+0  23256-3 0  9992", "line2": "2 06909  89.8562 254.9806 0156527  63.7867 297.9293 13.71436654804284"}}, "geometry": {"type": "Point", "coordinates": [75.12349252555062, -45.80023433125927]}}, {"type": "Feature", "properties": {"norad_id": 10457, "name": "TRANSAT", "group": "nnss", "lat": 86.84284179357334, "lon": -107.98558832132044, "alt_km": 1065.7084721847468, "timestamp": "2025-12-17T23:38:07.122502+00:00", "meta": {"OBJECT_NAME": "TRANSAT", "OBJECT_ID": "1977-106A", "EPOCH": "2025-12-17T07:28:04.452096", "MEAN_MOTION": 13.48944277, "ECCENTRICITY": 0.00258313, "INCLINATION": 89.6481, "RA_OF_ASC_NODE": 78.4352, "ARG_OF_PERICENTER": 176.3254, "MEAN_ANOMALY": 247.7021, "EPHEMERIS_TYPE": 0, "CLASSIFICATION_TYPE": "U", "NORAD_CAT_ID": 10457, "ELEMENT_SET_NO": 999, "REV_AT_EPOCH": 36805, "BSTAR": 9.3572407e-05, "MEAN_MOTION_DOT": 6.9e-07, "MEAN_MOTION_DDOT": 0}, "tle": {"line1": "1 10457U 77106A   25351.31116264  .00000069  00000+0  93572-4 0  9992", "line2": "2 10457  89.6481  78.4352 0025831 176.3254 247.7021 13.48944277368055"}}, "geometry": {"type": "Point", "coordinates": [-107.98558832132044, 86.84284179357334]}}, {"type": "Feature", "properties": {"norad_id": 12458, "name": "NOVA 1", "group": "nnss", "lat": -51.19252426662734, "lon": -88.50583193645032, "alt_km": 1188.4160805214615, "timestamp": "2025-12-17T23:38:07.122513+00:00", "meta": {"OBJECT_NAME": "NOVA 1", "OBJECT_ID": "1981-044A", "EPOCH": "2025-12-17T08:15:53.403840", "MEAN_MOTION": 13.23278916, "ECCENTRICITY": 0.00158995, "INCLINATION": 89.8528, "RA_OF_ASC_NODE": 91.3201, "ARG_OF_PERICENTER": 92.684, "MEAN_ANOMALY": 329.1679, "EPHEMERIS_TYPE": 0, "CLASSIFICATION_TYPE": "U", "NORAD_CAT_ID": 12458, "ELEMENT_SET_NO": 999, "REV_AT_EPOCH": 15247, "BSTAR": 6.6740266e-05, "MEAN_MOTION_DOT": 3.7e-07, "MEAN_MOTION_DDOT": 0}, "tle": {"line1": "1 12458U 81044A   25351.34436810  .00000037  00000+0  66740-4 0  9998", "line2": "2 12458  89.8528  91.3201 0015899  92.6840 329.1679 13.23278916152477"}}, "geometry": {"type": "Point", "coordinates": [-88.50583193645032, -51.19252426662734]}}, {"type": "Feature", "properties": {"norad_id": 15362, "name": "NOVA 3", "group": "nnss", "lat": 80.50046433138098, "lon": -98.6715250708623, "alt_km": 1183.85941613653, "timestamp": "2025-12-17T23:38:07.122523+00:00", "meta": {"OBJECT_NAME": "NOVA 3", "OBJECT_ID": "1984-110A", "EPOCH": "2025-12-17T12:17:57.699168", "MEAN_MOTION": 13.23045067, "ECCENTRICITY": 0.00301572, "INCLINATION": 90.1224, "RA_OF_ASC_NODE": 80.591, "ARG_OF_PERICENTER": 318.2807, "MEAN_ANOMALY": 52.5968, "EPHEMERIS_TYPE": 0, "CLASSIFICATION_TYPE": "U", "NORAD_CAT_ID": 15362, "ELEMENT_SET_NO": 999, "REV_AT_EPOCH": 98762, "BSTAR": 0.00015188625, "MEAN_MOTION_DOT": 7.2e-07, "MEAN_MOTION_DDOT": 0}, "tle": {"line1": "1 15362U 84110A   25351.51247337  .00000072  00000+0  15189-3 0  9994", "line2": "2 15362  90.1224  80.5910 0030157 318.2807  52.5968 13.23045067987623"}}, "geometry": {"type": "Point", "coordinates": [-98.6715250708623, 80.50046433138098]}}, {"type": "Feature", "properties": {"norad_id": 15935, "name": "OSCAR 30", "group": "nnss", "lat": 65.64902956066497, "lon": 99.56676617287809, "alt_km": 990.7942181967583, "timestamp": "2025-12-17T23:38:07.122534+00:00", "meta": {"OBJECT_NAME": "OSCAR 30", "OBJECT_ID": "1985-066A", "EPOCH": "2025-12-17T14:23:25.993824", "MEAN_MOTION": 13.36079102, "ECCENTRICITY": 0.01693186, "INCLINATION": 90.1656, "RA_OF_ASC_NODE": 99.9266, "ARG_OF_PERICENTER": 70.3489, "MEAN_ANOMALY": 303.7914, "EPHEMERIS_TYPE": 0, "CLASSIFICATION_TYPE": "U", "NORAD_CAT_ID": 15935, "ELEMENT_SET_NO": 999, "REV_AT_EPOCH": 96518, "BSTAR": 0.00011283828, "MEAN_MOTION_DOT": 7.3e-07, "MEAN_MOTION_DDOT": 0}, "tle": {"line1": "1 15935U 85066A   25351.59960641  .00000073  00000+0  11284-3 0  9992", "line2": "2 15935  90.1656  99.9266 0169318  70.3489 303.7914 13.36079102965180"}}, "geometry": {"type": "Point", "coordinates": [99.56676617287809, 65.64902956066497]}}, {"type": "Feature", "properties": {"norad_id": 15936, "name": "OSCAR 24", "group": "nnss", "lat": 39.699498024341715, "lon": -87.45297826955273, "alt_km": 1064.6509900071542, "timestamp": "2025-12-17T23:38:07.122544+00:00", "meta": {"OBJECT_NAME": "OSCAR 24", "OBJECT_ID": "1985-066B", "EPOCH": "2025-12-17T14:01:34.697568", "MEAN_MOTION": 13.35936435, "ECCENTRICITY": 0.01704091, "INCLINATION": 90.1792, "RA_OF_ASC_NODE": 92.3911, "ARG_OF_PERICENTER": 76.8208, "MEAN_ANOMALY": 297.2201, "EPHEMERIS_TYPE": 0, "CLASSIFICATION_TYPE": "U", "NORAD_CAT_ID": 15936, "ELEMENT_SET_NO": 999, "REV_AT_EPOCH": 96708, "BSTAR": 8.5391917e-05, "MEAN_MOTION_DOT": 5.8e-07, "MEAN_MOTION_DDOT": 0}, "tle": {"line1": "1 15936U 85066B   25351.58442937  .00000058  00000+0  85392-4 0  9990", "line2": "2 15936  90.1792  92.3911 0170409  76.8208 297.2201 13.35936435967086"}}, "geometry": {"type": "Point", "coordinates": [-87.45297826955273, 39.699498024341715]}}]}